OBJECT_NAME,OBJECT_ID,EPOCH,MEAN_MOTION,ECCENTRICITY,INCLINATION,RA_OF_ASC_NODE,ARG_OF_PERICENTER,MEAN_ANOMALY,EPHEMERIS_TYPE,CLASSIFICATION_TYPE,NORAD_CAT_ID,ELEMENT_SET_NO,REV_AT_EPOCH,BSTAR,MEAN_MOTION_DOT,MEAN_MOTION_DDOT
SKYSAT-C4,2016-058B,2026-06-14T19:29:16.042272,15.48520917,.0001226,96.9169,187.6837,128.6812,231.4550,0,U,41771,999,54510,.29321E-3,.15527E-3,0
SKYSAT-C5,2016-058C,2026-06-14T16:35:08.780640,15.34439069,.0001321,97.0470,206.4426,334.5202,25.5976,0,U,41772,999,54336,.21063E-3,.6951E-4,0
SKYSAT-C2,2016-058D,2026-06-14T19:02:37.984416,15.42023079,.0004843,97.0164,187.9784,75.8598,284.3188,0,U,41773,999,54468,.27118E-3,.11495E-3,0
SKYSAT-C3,2016-058E,2026-06-14T19:45:05.148000,15.52449633,.00016,96.9000,196.7608,91.3861,268.7576,0,U,41774,999,54574,.35142E-3,.2142E-3,0
ALSAT-1B,2016-059C,2026-06-14T20:40:30.296928,14.72273873,.0007937,97.7746,174.7252,229.0295,131.0227,0,U,41785,999,52023,.92242E-4,.536E-5,0
PATHFINDER 1,2016-059E,2026-06-14T19:38:39.657120,14.67660683,.0027619,97.8166,165.2017,211.3076,148.6486,0,U,41787,999,51936,.9324E-4,.486E-5,0
SCATSAT 1,2016-059H,2026-06-14T18:41:08.524896,14.79520897,.0053301,98.1191,229.5197,255.4639,104.0656,0,U,41790,999,10123,.13218E-3,.954E-5,0
GOKTURK 1A,2016-073A,2026-06-14T20:26:18.009312,14.62772857,.0001446,98.1262,60.5632,77.5074,282.6290,0,U,41875,999,50848,.59348E-4,.256E-5,0
RESOURCESAT-2A,2016-074A,2026-06-14T19:38:44.376288,14.21616476,.0003334,98.7533,239.3420,88.1141,272.0418,0,U,41877,999,49396,.17272E-3,.335E-5,0
CARTOSAT-2D,2017-008A,2026-06-14T20:28:39.943776,15.19316587,.0003746,97.4111,225.2027,239.8701,120.2163,0,U,41948,999,51722,.17146E-3,.3553E-4,0
SENTINEL-2B,2017-013A,2026-06-14T19:55:00.614208,14.30816090,.0001181,98.5697,240.6374,85.9083,274.2235,0,U,42063,999,48430,.42481E-4,.68E-6,0
CARTOSAT-2E,2017-036C,2026-06-14T20:54:17.537184,15.19238948,.0002653,97.4282,225.7114,333.6099,26.5000,0,U,42767,999,49779,.19155E-3,.3968E-4,0
FORMOSAT-5,2017-049A,2026-06-14T20:18:20.944800,14.50898101,.0012704,98.2254,241.2077,90.8118,269.4533,0,U,42920,999,46633,.47192E-4,.143E-5,0
SENTINEL-5P,2017-064A,2026-06-14T19:19:42.807648,14.19518651,.0000974,98.7925,107.9534,84.2825,275.8462,0,U,42969,999,44922,.40534E-4,.41E-6,0
SKYSAT-C11,2017-068A,2026-06-14T16:20:06.449280,15.57778383,.0000694,97.4344,314.4021,85.8934,274.2401,0,U,42987,999,48285,.33279E-3,.24652E-3,0
SKYSAT-C10,2017-068B,2026-06-14T19:32:59.004384,15.34603842,.0001143,97.4503,302.6382,94.0339,266.1035,0,U,42988,999,48199,.25057E-3,.8321E-4,0
SKYSAT-C9,2017-068C,2026-06-14T15:25:07.908960,15.41505590,.0009294,97.4421,303.3749,141.0340,219.1578,0,U,42989,999,48236,.286E-3,.11926E-3,0
SKYSAT-C8,2017-068D,2026-06-14T15:49:24.745152,15.36932092,.0001473,97.4518,302.2718,97.0669,263.0743,0,U,42990,999,48192,.27674E-3,.9914E-4,0
SKYSAT-C7,2017-068E,2026-06-14T20:21:22.453920,15.36886624,.000719,97.4530,303.4523,113.2897,246.9104,0,U,42991,999,48201,.28041E-3,.10039E-3,0
SKYSAT-C6,2017-068F,2026-06-14T20:44:06.094752,15.34175903,.0004323,97.4564,303.4466,143.4914,216.6624,0,U,42992,999,48196,.26606E-3,.8723E-4,0
CARTOSAT-2F,2018-004A,2026-06-14T20:05:41.849088,15.19199304,.0000549,97.4793,225.4947,237.3048,122.8134,0,U,43111,999,46697,.21164E-3,.4385E-4,0
GAOFEN-1 02,2018-031A,2026-06-14T20:36:35.938656,14.76452935,.0003985,98.0533,228.3922,39.4382,320.7117,0,U,43259,999,44235,.89618E-4,.572E-5,0
GAOFEN-1 03,2018-031B,2026-06-14T20:05:09.570912,14.76466030,.0003795,98.0523,228.2292,83.7674,276.3968,0,U,43260,999,44234,.98294E-4,.632E-5,0
GAOFEN-1 04,2018-031D,2026-06-14T21:07:43.575744,14.76477754,.0002262,98.0535,228.4629,84.6210,275.5257,0,U,43262,999,44234,.1615E-3,.1073E-4,0
SENTINEL-3B,2018-039A,2026-06-14T15:57:38.445984,14.26734026,.0000746,98.6250,233.2335,85.0012,275.1253,0,U,43437,999,42376,.44097E-4,.63E-6,0
GAOFEN-5 01,2018-043A,2026-06-14T20:52:10.253568,14.60603947,.0003034,98.4568,137.4071,87.4631,272.6915,0,U,43461,999,43135,.66955E-4,.276E-5,0
GAOFEN-6,2018-048A,2026-06-14T20:02:17.355840,14.76596077,.0011616,97.8551,228.6412,175.0156,185.1172,0,U,43484,999,43304,.92174E-4,.594E-5,0
GAOFEN-11 01,2018-063A,2026-06-14T20:34:12.444672,15.55225619,.000339,97.1297,232.7427,8.2835,351.8475,0,U,43585,999,43998,.19283E-3,.12943E-3,0
ICESAT-2,2018-070A,2026-06-14T20:43:07.144896,15.28247947,.0005919,92.0079,290.3509,111.5654,248.6226,0,U,43613,999,43210,.32314E-3,.8895E-4,0
HYSIS,2018-096A,2026-06-14T20:13:55.955136,14.78692067,.0001884,97.9848,232.6094,107.7132,252.4284,0,U,43719,999,40707,.13746E-3,.956E-5,0
KAZSTSAT,2018-099AB,2026-06-14T19:54:03.311136,14.99859526,.0008386,97.4266,197.8647,76.0111,284.2045,0,U,43783,999,41095,.11494E-3,.1369E-4,0
