SKYSAT-C4               
1 41771U 16058B   26165.81199123  .00015527  00000+0  29321-3 0  9993
2 41771  96.9169 187.6837 0001226 128.6812 231.4550 15.48520917545108
SKYSAT-C5               
1 41772U 16058C   26165.69107385  .00006951  00000+0  21063-3 0  9995
2 41772  97.0470 206.4426 0001321 334.5202  25.5976 15.34439069543369
SKYSAT-C2               
1 41773U 16058D   26165.79349519  .00011495  00000+0  27118-3 0  9990
2 41773  97.0164 187.9784 0004843  75.8598 284.3188 15.42023079544680
SKYSAT-C3               
1 41774U 16058E   26165.82297625  .00021420  00000+0  35142-3 0  9990
2 41774  96.9000 196.7608 0001600  91.3861 268.7576 15.52449633545749
ALSAT-1B                
1 41785U 16059C   26165.86146177  .00000536  00000+0  92242-4 0  9992
2 41785  97.7746 174.7252 0007937 229.0295 131.0227 14.72273873520232
PATHFINDER 1            
1 41787U 16059E   26165.81851455  .00000486  00000+0  93240-4 0  9994
2 41787  97.8166 165.2017 0027619 211.3076 148.6486 14.67660683519361
SCATSAT 1               
1 41790U 16059H   26165.77857089  .00000954  00000+0  13218-3 0  9998
2 41790  98.1191 229.5197 0053301 255.4639 104.0656 14.79520897101234
GOKTURK 1A              
1 41875U 16073A   26165.85159733  .00000256  00000+0  59348-4 0  9998
2 41875  98.1262  60.5632 0001446  77.5074 282.6290 14.62772857508485
RESOURCESAT-2A          
1 41877U 16074A   26165.81856917  .00000335  00000+0  17272-3 0  9992
2 41877  98.7533 239.3420 0003334  88.1141 272.0418 14.21616476493966
CARTOSAT-2D             
1 41948U 17008A   26165.85324009  .00003553  00000+0  17146-3 0  9990
2 41948  97.4111 225.2027 0003746 239.8701 120.2163 15.19316587517229
SENTINEL-2B             
1 42063U 17013A   26165.82986822  .00000068  00000+0  42481-4 0  9998
2 42063  98.5697 240.6374 0001181  85.9083 274.2235 14.30816090484307
CARTOSAT-2E             
1 42767U 17036C   26165.87103631  .00003968  00000+0  19155-3 0  9991
2 42767  97.4282 225.7114 0002653 333.6099  26.5000 15.19238948497790
FORMOSAT-5              
1 42920U 17049A   26165.84607575  .00000143  00000+0  47192-4 0  9994
2 42920  98.2254 241.2077 0012704  90.8118 269.4533 14.50898101466334
SENTINEL-5P             
1 42969U 17064A   26165.80535657  .00000041  00000+0  40534-4 0  9991
2 42969  98.7925 107.9534 0000974  84.2825 275.8462 14.19518651449226
SKYSAT-C11              
1 42987U 17068A   26165.68063020  .00024652  00000+0  33279-3 0  9992
2 42987  97.4344 314.4021 0000694  85.8934 274.2401 15.57778383482855
SKYSAT-C10              
1 42988U 17068B   26165.81457181  .00008321  00000+0  25057-3 0  9993
2 42988  97.4503 302.6382 0001143  94.0339 266.1035 15.34603842481992
SKYSAT-C9               
1 42989U 17068C   26165.64245265  .00011926  00000+0  28600-3 0  9995
2 42989  97.4421 303.3749 0009294 141.0340 219.1578 15.41505590482368
SKYSAT-C8               
1 42990U 17068D   26165.65931418  .00009914  00000+0  27674-3 0  9994
2 42990  97.4518 302.2718 0001473  97.0669 263.0743 15.36932092481924
SKYSAT-C7               
1 42991U 17068E   26165.84817655  .00010039  00000+0  28041-3 0  9991
2 42991  97.4530 303.4523 0007190 113.2897 246.9104 15.36886624482013
SKYSAT-C6               
1 42992U 17068F   26165.86395943  .00008723  00000+0  26606-3 0  9997
2 42992  97.4564 303.4466 0004323 143.4914 216.6624 15.34175903481960
CARTOSAT-2F             
1 43111U 18004A   26165.83728992  .00004385  00000+0  21164-3 0  9997
2 43111  97.4793 225.4947 0000549 237.3048 122.8134 15.19199304466974
GAOFEN-1 02             
1 43259U 18031A   26165.85874929  .00000572  00000+0  89618-4 0  9997
2 43259  98.0533 228.3922 0003985  39.4382 320.7117 14.76452935442350
GAOFEN-1 03             
1 43260U 18031B   26165.83691633  .00000632  00000+0  98294-4 0  9993
2 43260  98.0523 228.2292 0003795  83.7674 276.3968 14.76466030442345
GAOFEN-1 04             
1 43262U 18031D   26165.88036546  .00001073  00000+0  16150-3 0  9996
2 43262  98.0535 228.4629 0002262  84.6210 275.5257 14.76477754442347
SENTINEL-3B             
1 43437U 18039A   26165.66502831  .00000063  00000+0  44097-4 0  9999
2 43437  98.6250 233.2335 0000746  85.0012 275.1253 14.26734026423769
GAOFEN-5 01             
1 43461U 18043A   26165.86956312  .00000276  00000+0  66955-4 0  9993
2 43461  98.4568 137.4071 0003034  87.4631 272.6915 14.60603947431350
GAOFEN-6                
1 43484U 18048A   26165.83492310  .00000594  00000+0  92174-4 0  9998
2 43484  97.8551 228.6412 0011616 175.0156 185.1172 14.76596077433046
GAOFEN-11 01            
1 43585U 18063A   26165.85708848  .00012943  00000+0  19283-3 0  9995
2 43585  97.1297 232.7427 0003390   8.2835 351.8475 15.55225619439987
ICESAT-2                
1 43613U 18070A   26165.86327714  .00008895  00000+0  32314-3 0  9996
2 43613  92.0079 290.3509 0005919 111.5654 248.6226 15.28247947432100
HYSIS                   
1 43719U 18096A   26165.84300874  .00000956  00000+0  13746-3 0  9995
2 43719  97.9848 232.6094 0001884 107.7132 252.4284 14.78692067407074
KAZSTSAT                
1 43783U 18099AB  26165.82920499  .00001369  00000+0  11494-3 0  9995
2 43783  97.4266 197.8647 0008386  76.0111 284.2045 14.99859526410956
